CTC1_L_00438016-03
1 13148U 25112EL  26037.47806713  .00000000  00000+0  00000-0 0  9991
2 13148 100.0000 180.0000 0000000   0.0000   0.0000 12.53473282    17
CTC1_L_00438016-04
1 13149U 23078JV  26037.47806713  .00000000  00000+0  00000-0 0  9991
2 13149 100.0000 180.0000 0000000   0.0000  90.0000 12.53473282    17
CTC1_L_00438017-01
1 13150U 26220DA  26037.47806713  .00000000  00000+0  00000-0 0  9995
2 13150 100.0000 192.0000 0000000   0.0000 192.0000 12.53473282    15
CTC1_L_00438017-02
1 13151U 25538GN  26037.47806713  .00000000  00000+0  00000-0 0  9997
2 13151 100.0000 192.0000 0000000   0.0000 282.0000 12.53473282    16
CTC1_L_00438017-03
1 13152U 23739HQ  26037.47806713  .00000000  00000+0  00000-0 0  9999
2 13152 100.0000 192.0000 0000000   0.0000  12.0000 12.53473282    18
CTC1_L_00438017-04
1 13153U 24025MD  26037.47806713  .00000000  00000+0  00000-0 0  9999
2 13153 100.0000 192.0000 0000000   0.0000 102.0000 12.53473282    19
CTC1_L_00438018-01
1 13154U 26592BL  26037.47806713  .00000000  00000+0  00000-0 0  9991
2 13154 100.0000 204.0000 0000000   0.0000 204.0000 12.53473282    17
CTC1_L_00438018-02
1 13155U 25498YF  26037.47806713  .00000000  00000+0  00000-0 0  9996
2 13155 100.0000 204.0000 0000000   0.0000 294.0000 12.53473282    17
CTC1_L_00438018-03
1 13156U 24536ZY  26037.47806713  .00000000  00000+0  00000-0 0  9999
2 13156 100.0000 204.0000 0000000   0.0000  24.0000 12.53473282    19
CTC1_L_00438018-04
1 13157U 23012WL  26037.47806713  .00000000  00000+0  00000-0 0  9998
2 13157 100.0000 204.0000 0000000   0.0000 114.0000 12.53473282    10
CTC1_L_00438019-01
1 13158U 24845G   26037.47806713  .00000000  00000+0  00000-0 0  9994
2 13158 100.0000 216.0000 0000000   0.0000 216.0000 12.53473282    17
CTC1_L_00438019-02
1 13159U 23578QD  26037.47806713  .00000000  00000+0  00000-0 0  9997
2 13159 100.0000 216.0000 0000000   0.0000 306.0000 12.53473282    18
CTC1_L_00438019-03
1 13160U 23361FS  26037.47806713  .00000000  00000+0  00000-0 0  9999
2 13160 100.0000 216.0000 0000000   0.0000  36.0000 12.53473282    10
CTC1_L_00438019-04
1 13161U 23221RZ  26037.47806713  .00000000  00000+0  00000-0 0  9995
2 13161 100.0000 216.0000 0000000   0.0000 126.0000 12.53473282    11
CTC1_L_00438020-01
1 13162U 23655XW  26037.47806713  .00000000  00000+0  00000-0 0  9997
2 13162 100.0000 228.0000 0000000   0.0000 228.0000 12.53473282    18
CTC1_L_00438020-02
1 13163U 24884RD  26037.47806713  .00000000  00000+0  00000-0 0  9993
2 13163 100.0000 228.0000 0000000   0.0000 318.0000 12.53473282    19
CTC1_L_00438020-03
1 13164U 25988HH  26037.47806713  .00000000  00000+0  00000-0 0  9990
2 13164 100.0000 228.0000 0000000   0.0000  48.0000 12.53473282    10
CTC1_L_00438020-04
1 13165U 22430KV  26037.47806713  .00000000  00000+0  00000-0 0  9990
2 13165 100.0000 228.0000 0000000   0.0000 138.0000 12.53473282    11
CTC1_L_00438021-01
1 13166U 26170NH  26037.47806713  .00000000  00000+0  00000-0 0  9996
2 13166 100.0000 240.0000 0000000   0.0000 240.0000 12.53473282    10
CTC1_L_00438021-02
1 13167U 23775TV  26037.47806713  .00000000  00000+0  00000-0 0  9995
2 13167 100.0000 240.0000 0000000   0.0000 330.0000 12.53473282    11
CTC1_L_00438021-03
1 13168U 22711JJ  26037.47806713  .00000000  00000+0  00000-0 0  9995
2 13168 100.0000 240.0000 0000000   0.0000  60.0000 12.53473282    12
CTC1_L_00438021-04
1 13169U 25618U   26037.47806713  .00000000  00000+0  00000-0 0  9995
2 13169 100.0000 240.0000 0000000   0.0000 150.0000 12.53473282    13
CTC1_L_00438022-01
1 13170U 24596HL  26037.47806713  .00000000  00000+0  00000-0 0  9991
2 13170 100.0000 252.0000 0000000   0.0000 252.0000 12.53473282    11
CTC1_L_00438022-02
1 13171U 22376RU  26037.47806713  .00000000  00000+0  00000-0 0  9996
2 13171 100.0000 252.0000 0000000   0.0000 342.0000 12.53473282    12
CTC1_L_00438022-03
1 13172U 26361OV  26037.47806713  .00000000  00000+0  00000-0 0  9995
2 13172 100.0000 252.0000 0000000   0.0000  72.0000 12.53473282    13
CTC1_L_00438022-04
1 13173U 23772QY  26037.47806713  .00000000  00000+0  00000-0 0  9999
2 13173 100.0000 252.0000 0000000   0.0000 162.0000 12.53473282    14
CTC1_L_00438023-01
1 13174U 22701KX  26037.47806713  .00000000  00000+0  00000-0 0  9991
2 13174 100.0000 264.0000 0000000   0.0000 264.0000 12.53473282    11
CTC1_L_00438023-02
1 13175U 24690IK  26037.47806713  .00000000  00000+0  00000-0 0  9991
2 13175 100.0000 264.0000 0000000   0.0000 354.0000 12.53473282    12
CTC1_L_00438023-03
1 13176U 26392VR  26037.47806713  .00000000  00000+0  00000-0 0  9993
2 13176 100.0000 264.0000 0000000   0.0000  84.0000 12.53473282    13
CTC1_L_00438023-04
1 13177U 25104KY  26037.47806713  .00000000  00000+0  00000-0 0  9994
2 13177 100.0000 264.0000 0000000   0.0000 174.0000 12.53473282    14
CTC1_L_00438024-01
1 13178U 22096LC  26037.47806713  .00000000  00000+0  00000-0 0  9992
2 13178 100.0000 276.0000 0000000   0.0000 276.0000 12.53473282    11
CTC1_L_00438024-02
1 13179U 25567UO  26037.47806713  .00000000  00000+0  00000-0 0  9999
2 13179 100.0000 276.0000 0000000   0.0000   6.0000 12.53473282    13
CTC1_L_00438024-03
1 13180U 25717CF  26037.47806713  .00000000  00000+0  00000-0 0  9998
2 13180 100.0000 276.0000 0000000   0.0000  96.0000 12.53473282    14
CTC1_L_00438024-04
1 13181U 24140ZS  26037.47806713  .00000000  00000+0  00000-0 0  9998
2 13181 100.0000 276.0000 0000000   0.0000 186.0000 12.53473282    15
CTC1_L_00438025-01
1 13182U 24024YB  26037.47806713  .00000000  00000+0  00000-0 0  9990
2 13182 100.0000 288.0000 0000000   0.0000 288.0000 12.53473282    12
CTC1_L_00438025-02
1 13183U 25267FB  26037.47806713  .00000000  00000+0  00000-0 0  9991
2 13183 100.0000 288.0000 0000000   0.0000  18.0000 12.53473282    14
CTC1_L_00438025-03
1 13184U 26701ZX  26037.47806713  .00000000  00000+0  00000-0 0  9996
2 13184 100.0000 288.0000 0000000   0.0000 108.0000 12.53473282    15
CTC1_L_00438025-04
1 13185U 26581KZ  26037.47806713  .00000000  00000+0  00000-0 0  9993
2 13185 100.0000 288.0000 0000000   0.0000 198.0000 12.53473282    15
CTC1_L_00438026-01
1 13186U 24659CX  26037.47806713  .00000000  00000+0  00000-0 0  9998
2 13186 100.0000 300.0000 0000000   0.0000 300.0000 12.53473282    16
CTC1_L_00438026-02
1 13187U 24297VX  26037.47806713  .00000000  00000+0  00000-0 0  9997
2 13187 100.0000 300.0000 0000000   0.0000  30.0000 12.53473282    17
CTC1_L_00438026-03
1 13188U 22590QA  26037.47806713  .00000000  00000+0  00000-0 0  9992
2 13188 100.0000 300.0000 0000000   0.0000 120.0000 12.53473282    18
CTC1_L_00438026-04
1 13189U 25674UD  26037.47806713  .00000000  00000+0  00000-0 0  9999
2 13189 100.0000 300.0000 0000000   0.0000 210.0000 12.53473282    19
CTC1_L_00438027-01
1 13190U 22022WU  26037.47806713  .00000000  00000+0  00000-0 0  9995
2 13190 100.0000 312.0000 0000000   0.0000 312.0000 12.53473282    17
CTC1_L_00438027-02
1 13191U 24915AM  26037.47806713  .00000000  00000+0  00000-0 0  9999
2 13191 100.0000 312.0000 0000000   0.0000  42.0000 12.53473282    18
CTC1_L_00438027-03
1 13192U 25273QA  26037.47806713  .00000000  00000+0  00000-0 0  9998
2 13192 100.0000 312.0000 0000000   0.0000 132.0000 12.53473282    19
CTC1_L_00438027-04
1 13193U 22536HN  26037.47806713  .00000000  00000+0  00000-0 0  9998
2 13193 100.0000 312.0000 0000000   0.0000 222.0000 12.53473282    10
CTC1_L_00438028-01
1 13194U 26229EM  26037.47806713  .00000000  00000+0  00000-0 0  9992
2 13194 100.0000 324.0000 0000000   0.0000 324.0000 12.53473282    17
CTC1_L_00438028-02
1 13195U 26194DG  26037.47806713  .00000000  00000+0  00000-0 0  9994
2 13195 100.0000 324.0000 0000000   0.0000  54.0000 12.53473282    18
CTC1_L_00438028-03
1 13196U 26610FW  26037.47806713  .00000000  00000+0  00000-0 0  9998
2 13196 100.0000 324.0000 0000000   0.0000 144.0000 12.53473282    19
CTC1_L_00438028-04
1 13197U 23432MD  26037.47806713  .00000000  00000+0  00000-0 0  9998
2 13197 100.0000 324.0000 0000000   0.0000 234.0000 12.53473282    10
CTC1_L_00438029-01
1 13198U 24062MJ  26037.47806713  .00000000  00000+0  00000-0 0  9999
2 13198 100.0000 336.0000 0000000   0.0000 336.0000 12.53473282    17
CTC1_L_00438029-02
1 13199U 25265PN  26037.47806713  .00000000  00000+0  00000-0 0  9996
2 13199 100.0000 336.0000 0000000   0.0000  66.0000 12.53473282    18
CTC1_L_00438029-03
1 13200U 25178GO  26037.47806713  .00000000  00000+0  00000-0 0  9992
2 13200 100.0000 336.0000 0000000   0.0000 156.0000 12.53473282    11
CTC1_L_00438029-04
1 13201U 22338AO  26037.47806713  .00000000  00000+0  00000-0 0  9998
2 13201 100.0000 336.0000 0000000   0.0000 246.0000 12.53473282    12
CTC1_L_00438030-01
1 13202U 23156NP  26037.47806713  .00000000  00000+0  00000-0 0  9998
2 13202 100.0000 348.0000 0000000   0.0000 348.0000 12.53473282    19
CTC1_L_00438030-02
1 13203U 22195BZ  26037.47806713  .00000000  00000+0  00000-0 0  9991
2 13203 100.0000 348.0000 0000000   0.0000  78.0000 12.53473282    10
CTC1_L_00438030-03
1 13204U 23963OQ  26037.47806713  .00000000  00000+0  00000-0 0  9996
2 13204 100.0000 348.0000 0000000   0.0000 168.0000 12.53473282    11
CTC1_L_00438030-04
1 13205U 25694AK  26037.47806713  .00000000  00000+0  00000-0 0  9990
2 13205 100.0000 348.0000 0000000   0.0000 258.0000 12.53473282    12
